start=new Date('2022-04-21T00:00:00.000Z').valueOf();
sats=[{"GP_ID":"201716440","OBJECT_ID":"2021-104BE","SEMIMAJOR_AXIS":"6917.964","MEAN_MOTION_DOT":"0.00035540","SITE":"AFETR","RCS_SIZE":"LARGE","MEAN_ANOMALY":"306.0773","RA_OF_ASC_NODE":"108.2473","INCLINATION":"53.2158","REV_AT_EPOCH":"358","ARG_OF_PERICENTER":"33.7155","FILE":"3409979","PERIOD":"95.439","NORAD_CAT_ID":"49460","EPHEMERIS_TYPE":"0","BSTAR":"0.00224150000000","ECCENTRICITY":"0.00028600","TLE_LINE1":"1 49460U 21104BE  22110.91667824  .00035540  00000-0  22415-2 0  9993","DECAY_DATE":null,"APOAPSIS":"541.808","REF_FRAME":"TEME","MEAN_MOTION":"15.08812565","OBJECT_TYPE":"PAYLOAD","LAUNCH_DATE":"2021-11-13","CENTER_NAME":"EARTH","PERIAPSIS":"537.851","COUNTRY_CODE":"US","CLASSIFICATION_TYPE":"U","OBJECT_NAME":"STARLINK-3140","TLE_LINE2":"2 49460  53.2158 108.2473 0002860  33.7155 306.0773 15.08812565  3587","MEAN_ELEMENT_THEORY":"SGP4","MEAN_MOTION_DDOT":"0.0000000000000","TIME_SYSTEM":"UTC","EPOCH":"2022-04-20T22:00:00.999936","ELEMENT_SET_NO":"999"},{"MEAN_MOTION_DDOT":"0.0000000000000","EPOCH":"2022-04-20T22:00:00.999936","TIME_SYSTEM":"UTC","ELEMENT_SET_NO":"999","COUNTRY_CODE":"US","PERIAPSIS":"538.424","CLASSIFICATION_TYPE":"U","OBJECT_NAME":"STARLINK-3219","TLE_LINE2":"2 49724  53.2137  38.2529 0001854  48.3824  31.1814 15.08852623  3590","MEAN_ELEMENT_THEORY":"SGP4","MEAN_MOTION":"15.08852623","OBJECT_TYPE":"PAYLOAD","LAUNCH_DATE":"2021-12-02","CENTER_NAME":"EARTH","TLE_LINE1":"1 49724U 21115A   22110.91667824 -.00014946  00000-0 -92255-3 0  9997","DECAY_DATE":null,"APOAPSIS":"540.989","REF_FRAME":"TEME","BSTAR":"-0.00092255000000","ECCENTRICITY":"0.00018540","PERIOD":"95.437","FILE":"3409979","NORAD_CAT_ID":"49724","EPHEMERIS_TYPE":"0","MEAN_ANOMALY":"31.1814","RA_OF_ASC_NODE":"38.2529","INCLINATION":"53.2137","REV_AT_EPOCH":"359","ARG_OF_PERICENTER":"48.3824","GP_ID":"201715960","OBJECT_ID":"2021-115A","SEMIMAJOR_AXIS":"6917.842","RCS_SIZE":"LARGE","SITE":"AFETR","MEAN_MOTION_DOT":"-0.00014946"},{"TLE_LINE1":"1 49725U 21115B   22110.91667824 -.00010027  00000-0 -61270-3 0  9997","REF_FRAME":"TEME","APOAPSIS":"541.181","DECAY_DATE":null,"MEAN_MOTION":"15.08841394","OBJECT_TYPE":"PAYLOAD","CENTER_NAME":"EARTH","LAUNCH_DATE":"2021-12-02","PERIAPSIS":"538.302","COUNTRY_CODE":"US","CLASSIFICATION_TYPE":"U","TLE_LINE2":"2 49725  53.2193  38.2298 0002081  38.1767 221.3982 15.08841394  3583","OBJECT_NAME":"STARLINK-3218","MEAN_ELEMENT_THEORY":"SGP4","MEAN_MOTION_DDOT":"0.0000000000000","ELEMENT_SET_NO":"999","EPOCH":"2022-04-20T22:00:00.999936","TIME_SYSTEM":"UTC","GP_ID":"201716711","SEMIMAJOR_AXIS":"6917.876","OBJECT_ID":"2021-115B","MEAN_MOTION_DOT":"-0.00010027","SITE":"AFETR","RCS_SIZE":"LARGE","INCLINATION":"53.2193","MEAN_ANOMALY":"221.3982","RA_OF_ASC_NODE":"38.2298","ARG_OF_PERICENTER":"38.1767","REV_AT_EPOCH":"358","FILE":"3409979","PERIOD":"95.437","NORAD_CAT_ID":"49725","EPHEMERIS_TYPE":"0","BSTAR":"-0.00061270000000","ECCENTRICITY":"0.00020810"},{"COUNTRY_CODE":"US","PERIAPSIS":"538.389","CLASSIFICATION_TYPE":"U","OBJECT_NAME":"STARLINK-3237","TLE_LINE2":"2 49726  53.2190  48.2384 0001887  44.8147  64.9522 15.08856675  3597","MEAN_ELEMENT_THEORY":"SGP4","MEAN_MOTION_DDOT":"0.0000000000000","TIME_SYSTEM":"UTC","EPOCH":"2022-04-20T22:00:00.999936","ELEMENT_SET_NO":"999","TLE_LINE1":"1 49726U 21115C   22110.91667824 -.00011627  00000-0 -71326-3 0  9998","DECAY_DATE":null,"APOAPSIS":"541.000","REF_FRAME":"TEME","MEAN_MOTION":"15.08856675","OBJECT_TYPE":"PAYLOAD","LAUNCH_DATE":"2021-12-02","CENTER_NAME":"EARTH","FILE":"3409979","PERIOD":"95.436","NORAD_CAT_ID":"49726","EPHEMERIS_TYPE":"0","BSTAR":"-0.00071326000000","ECCENTRICITY":"0.00018870","GP_ID":"201715459","OBJECT_ID":"2021-115C","SEMIMAJOR_AXIS":"6917.829","SITE":"AFETR","MEAN_MOTION_DOT":"-0.00011627","RCS_SIZE":"LARGE","RA_OF_ASC_NODE":"48.2384","MEAN_ANOMALY":"64.9522","INCLINATION":"53.2190","REV_AT_EPOCH":"359","ARG_OF_PERICENTER":"44.8147"},{"MEAN_MOTION":"15.08846168","OBJECT_TYPE":"PAYLOAD","LAUNCH_DATE":"2021-12-02","CENTER_NAME":"EARTH","TLE_LINE1":"1 49727U 21115D   22110.91667824 -.00005808  00000-0 -34702-3 0  9990","DECAY_DATE":null,"REF_FRAME":"TEME","APOAPSIS":"541.060","MEAN_MOTION_DDOT":"0.0000000000000","TIME_SYSTEM":"UTC","EPOCH":"2022-04-20T22:00:00.999936","ELEMENT_SET_NO":"999","PERIAPSIS":"538.393","COUNTRY_CODE":"US","CLASSIFICATION_TYPE":"U","OBJECT_NAME":"STARLINK-3242","TLE_LINE2":"2 49727  53.2184  48.2445 0001928  45.7068  44.0568 15.08846168  3592","MEAN_ELEMENT_THEORY":"SGP4","MEAN_ANOMALY":"44.0568","RA_OF_ASC_NODE":"48.2445","INCLINATION":"53.2184","REV_AT_EPOCH":"359","ARG_OF_PERICENTER":"45.7068","GP_ID":"201715209","SEMIMAJOR_AXIS":"6917.862","OBJECT_ID":"2021-115D","SITE":"AFETR","RCS_SIZE":"LARGE","MEAN_MOTION_DOT":"-0.00005808","BSTAR":"-0.00034702000000","ECCENTRICITY":"0.00019280","FILE":"3409979","PERIOD":"95.437","NORAD_CAT_ID":"49727","EPHEMERIS_TYPE":"0"},{"NORAD_CAT_ID":"49728","FILE":"3409979","PERIOD":"95.437","EPHEMERIS_TYPE":"0","BSTAR":"-0.00237300000000","ECCENTRICITY":"0.00016720","GP_ID":"201716461","RCS_SIZE":"LARGE","SITE":"AFETR","MEAN_MOTION_DOT":"-0.00037869","SEMIMAJOR_AXIS":"6917.843","OBJECT_ID":"2021-115E","MEAN_ANOMALY":"11.9720","RA_OF_ASC_NODE":"48.2494","INCLINATION":"53.2189","REV_AT_EPOCH":"359","ARG_OF_PERICENTER":"57.8094","TLE_LINE2":"2 49728  53.2189  48.2494 0001672  57.8094  11.9720 15.08852112  3590","OBJECT_NAME":"STARLINK-3240","CLASSIFICATION_TYPE":"U","COUNTRY_CODE":"US","PERIAPSIS":"538.552","MEAN_ELEMENT_THEORY":"SGP4","MEAN_MOTION_DDOT":"0.0000000000000","EPOCH":"2022-04-20T22:00:00.999936","TIME_SYSTEM":"UTC","ELEMENT_SET_NO":"999","TLE_LINE1":"1 49728U 21115E   22110.91667824 -.00037869  00000-0 -23730-2 0  9991","DECAY_DATE":null,"APOAPSIS":"540.865","REF_FRAME":"TEME","MEAN_MOTION":"15.08852112","LAUNCH_DATE":"2021-12-02","CENTER_NAME":"EARTH","OBJECT_TYPE":"PAYLOAD"},{"ECCENTRICITY":"0.00023860","BSTAR":"-0.00201850000000","EPHEMERIS_TYPE":"0","NORAD_CAT_ID":"49729","FILE":"3409930","PERIOD":"95.437","ARG_OF_PERICENTER":"40.0504","REV_AT_EPOCH":"2231","INCLINATION":"53.2180","MEAN_ANOMALY":"9.7342","RA_OF_ASC_NODE":"48.2468","SITE":"AFETR","MEAN_MOTION_DOT":"-0.00032282","RCS_SIZE":"LARGE","SEMIMAJOR_AXIS":"6917.841","OBJECT_ID":"2021-115F","GP_ID":"201691915","ELEMENT_SET_NO":"999","TIME_SYSTEM":"UTC","EPOCH":"2022-04-20T22:00:00.999936","MEAN_MOTION_DDOT":"0.0000000000000","MEAN_ELEMENT_THEORY":"SGP4","TLE_LINE2":"2 49729  53.2180  48.2468 0002386  40.0504   9.7342 15.08852726 22313","OBJECT_NAME":"STARLINK-3251","PERIAPSIS":"538.056","COUNTRY_CODE":"US","CLASSIFICATION_TYPE":"U","CENTER_NAME":"EARTH","LAUNCH_DATE":"2021-12-02","OBJECT_TYPE":"PAYLOAD","MEAN_MOTION":"15.08852726","APOAPSIS":"541.357","REF_FRAME":"TEME","DECAY_DATE":null,"TLE_LINE1":"1 49729U 21115F   22110.91667824 -.00032282  00000-0 -20185-2 0  9997"},{"TLE_LINE1":"1 49730U 21115G   22110.91667824 -.00032894  00000-0 -20573-2 0  9999","APOAPSIS":"541.122","REF_FRAME":"TEME","DECAY_DATE":null,"MEAN_MOTION":"15.08853232","CENTER_NAME":"EARTH","LAUNCH_DATE":"2021-12-02","OBJECT_TYPE":"PAYLOAD","TLE_LINE2":"2 49730  53.2169  48.2434 0002048  39.2720 330.4989 15.08853232 22314","OBJECT_NAME":"STARLINK-3249","COUNTRY_CODE":"US","CLASSIFICATION_TYPE":"U","PERIAPSIS":"538.288","MEAN_ELEMENT_THEORY":"SGP4","MEAN_MOTION_DDOT":"0.0000000000000","ELEMENT_SET_NO":"999","TIME_SYSTEM":"UTC","EPOCH":"2022-04-20T22:00:00.999936","GP_ID":"201691455","SITE":"AFETR","MEAN_MOTION_DOT":"-0.00032894","RCS_SIZE":"LARGE","SEMIMAJOR_AXIS":"6917.840","OBJECT_ID":"2021-115G","INCLINATION":"53.2169","MEAN_ANOMALY":"330.4989","RA_OF_ASC_NODE":"48.2434","ARG_OF_PERICENTER":"39.2720","REV_AT_EPOCH":"2231","NORAD_CAT_ID":"49730","PERIOD":"95.437","FILE":"3409942","EPHEMERIS_TYPE":"0","BSTAR":"-0.00205730000000","ECCENTRICITY":"0.00020480"},{"MEAN_MOTION":"15.08854540","OBJECT_TYPE":"PAYLOAD","LAUNCH_DATE":"2021-12-02","CENTER_NAME":"EARTH","TLE_LINE1":"1 49731U 21115H   22110.91667824 -.00032150  00000-0 -20101-2 0  9992","DECAY_DATE":null,"REF_FRAME":"TEME","APOAPSIS":"541.166","MEAN_MOTION_DDOT":"0.0000000000000","EPOCH":"2022-04-20T22:00:00.999936","TIME_SYSTEM":"UTC","ELEMENT_SET_NO":"999","CLASSIFICATION_TYPE":"U","COUNTRY_CODE":"US","PERIAPSIS":"538.236","TLE_LINE2":"2 49731  53.2176  48.2524 0002118  43.5608 346.2229 15.08854540  3598","OBJECT_NAME":"STARLINK-3228","MEAN_ELEMENT_THEORY":"SGP4","RA_OF_ASC_NODE":"48.2524","MEAN_ANOMALY":"346.2229","INCLINATION":"53.2176","REV_AT_EPOCH":"359","ARG_OF_PERICENTER":"43.5608","GP_ID":"201715710","SEMIMAJOR_AXIS":"6917.836","OBJECT_ID":"2021-115H","SITE":"AFETR","MEAN_MOTION_DOT":"-0.00032150","RCS_SIZE":"LARGE","BSTAR":"-0.00201010000000","ECCENTRICITY":"0.00021180","FILE":"3409979","PERIOD":"95.437","NORAD_CAT_ID":"49731","EPHEMERIS_TYPE":"0"},{"INCLINATION":"53.2137","MEAN_ANOMALY":"258.7674","RA_OF_ASC_NODE":"48.2479","ARG_OF_PERICENTER":"50.9984","REV_AT_EPOCH":"2231","GP_ID":"201689057","SEMIMAJOR_AXIS":"6917.871","OBJECT_ID":"2021-115J","RCS_SIZE":"LARGE","SITE":"AFETR","MEAN_MOTION_DOT":"-0.00006546","BSTAR":"-0.00039354000000","ECCENTRICITY":"0.00018410","PERIOD":"95.437","FILE":"3409830","NORAD_CAT_ID":"49732","EPHEMERIS_TYPE":"0","MEAN_MOTION":"15.08842928","OBJECT_TYPE":"PAYLOAD","CENTER_NAME":"EARTH","LAUNCH_DATE":"2021-12-02","TLE_LINE1":"1 49732U 21115J   22110.91667824 -.00006546  00000-0 -39354-3 0  9994","REF_FRAME":"TEME","APOAPSIS":"541.010","DECAY_DATE":null,"MEAN_MOTION_DDOT":"0.0000000000000","ELEMENT_SET_NO":"999","EPOCH":"2022-04-20T22:00:00.999936","TIME_SYSTEM":"UTC","CLASSIFICATION_TYPE":"U","COUNTRY_CODE":"US","PERIAPSIS":"538.463","TLE_LINE2":"2 49732  53.2137  48.2479 0001841  50.9984 258.7674 15.08842928 22315","OBJECT_NAME":"STARLINK-3246","MEAN_ELEMENT_THEORY":"SGP4"}];
